CHINASAT 10 (ZX 10)     
1 37677U 11026A   21180.23027102 -.00000362  00000-0  00000+0 0  9990
2 37677   0.0623 249.7375 0004208 262.2950 318.9115  1.00270339 36776
TIANLIAN 1-02           
1 37737U 11032A   21180.31782302 -.00000027  00000-0  00000-0 0  9992
2 37737   2.3430  74.4850 0017263  88.5626  39.9341  1.00272502 36538
GSAT-12                 
1 37746U 11034A   21180.19658529  .00000115  00000-0  00000-0 0  9990
2 37746   0.5005  96.7681 0011368 357.3366 302.0926  1.00271263 25302
SES-3                   
1 37748U 11035A   21180.48298306 -.00000110  00000-0  00000+0 0  9993
2 37748   0.0233 333.4606 0003530 122.7667 252.3983  1.00268977 36502
KAZSAT-2                
1 37749U 11035B   21180.18660263 -.00000208  00000-0  00000-0 0  9995
2 37749   0.0444 160.3290 0002255 356.4998 274.3366  1.00272442 35194
BEIDOU 9                
1 37763U 11038A   21179.36146803 -.00000037  00000-0  00000-0 0  9991
2 37763  54.4649 181.9353 0084069 226.8567  92.8610  1.00262937 36446
ASTRA 1N                
1 37775U 11041A   21180.19082772  .00000110  00000-0  00000-0 0  9996
2 37775   0.0411 356.5634 0004779  82.2079 286.6074  1.00273601 26331
BSAT-3C (JCSAT-110R)    
1 37776U 11041B   21180.16993807 -.00000360  00000-0  00000+0 0  9991
2 37776   0.0237   7.2887 0000166 135.8599 305.4578  1.00271703 36337
PAKSAT-1R               
1 37779U 11042A   21180.19457887  .00000144  00000-0  00000-0 0  9991
2 37779   0.0557 237.4182 0006779 181.0873 327.0270  1.00273551 36280
CHINASAT 1A (ZX 1A)     
1 37804U 11047A   21180.41315248 -.00000347  00000-0  00000+0 0  9999
2 37804   0.0385 123.1838 0000773 297.5335 135.5466  1.00268311 35883
SES-2                   
1 37809U 11049A   21180.20535434 -.00000205  00000-0  00000-0 0  9998
2 37809   0.0099 347.9754 0003001 113.2217 163.2212  1.00271731 35778
ARABSAT-5C              
1 37810U 11049B   21180.19691021  .00000114  00000-0  00000-0 0  9991
2 37810   0.0562 356.4875 0005901 139.5395 232.3671  1.00273902 35862
EUTELSAT 7 WEST A       
1 37816U 11051A   21180.40093128 -.00000070  00000-0  00000+0 0  9999
2 37816   0.0599  20.4726 0006025 121.9258 272.3113  1.00271019 35785
QUETZSAT 1              
1 37826U 11054A   21180.17164194 -.00000251  00000-0  00000-0 0  9991
2 37826   0.0353 306.3195 0003069 163.3865 152.5380  1.00270443 31702
INTELSAT 18 (IS-18)     
1 37834U 11056A   21180.22292706  .00000043  00000-0  00000-0 0  9997
2 37834   0.0156   7.9218 0002115  93.2209  76.6158  1.00271301 35624
EUTELSAT 16A            
1 37836U 11057A   21180.19021706  .00000095  00000-0  00000+0 0  9992
2 37836   0.0663 354.0297 0005513 107.0974 260.8469  1.00275331 35607
VIASAT-1                
1 37843U 11059A   21179.87683420 -.00000034  00000-0  00000-0 0  9997
2 37843   0.0185  37.4509 0002800  70.1356  10.1332  1.00272629 29135
ASIASAT 7               
1 37933U 11069A   21179.99431044 -.00000344  00000-0  00000-0 0  9998
2 37933   0.0103 280.5536 0001618 156.0158 304.1537  1.00269156 35272
BEIDOU 10               
1 37948U 11073A   21180.26450363 -.00000168  00000-0  00000+0 0  9999
2 37948  50.9431 293.4792 0076190 214.9403 318.7461  1.00290472 35213
LUCH 5A                 
1 37951U 11074B   21180.07684497 -.00000057  00000-0  00000-0 0  9998
2 37951   4.1480 105.0846 0005898 346.0598  20.9961  1.00268192 35007
NIGCOMSAT 1R            
1 38014U 11077A   21180.19553847  .00000135  00000-0  00000-0 0  9995
2 38014   0.0439 205.3168 0002336 251.0791 293.9624  1.00273658 34765
FENGYUN 2F              
1 38049U 12002A   21180.22340645 -.00000368  00000-0  00000-0 0  9995
2 38049   2.9427  82.0493 0002414  48.9662 338.8985  1.00278633 34700
WGS F4 (USA 233)        
1 38070U 12003A   21180.18660263 -.00000225  00000-0  00000-0 0  9998
2 38070   0.0167  48.5700 0000322  85.4720 299.0226  1.00270436 25955
SES-4                   
1 38087U 12007A   21180.18262753 -.00000178  00000-0  00000-0 0  9999
2 38087   0.0069  21.6931 0002469  89.6830 209.8423  1.00271547 34057
BEIDOU 11               
1 38091U 12008A   21180.12697794  .00000045  00000-0  00000-0 0  9998
2 38091   1.5788  67.9553 0007845 336.3702 337.5572  1.00275675 34287
MUOS-1                  
1 38093U 12009A   21180.16701844 -.00000137  00000-0  00000-0 0  9990
2 38093   2.6289  21.1923 0056022   3.5433 212.8445  1.00270666 34251
INTELSAT 22 (IS-22)     
1 38098U 12011A   21180.24493913 -.00000068  00000-0  00000-0 0  9995
2 38098   0.0283 327.2888 0002821 120.3433 350.1763  1.00269178 33623
APSTAR 7                
1 38107U 12013A   21180.20216840 -.00000111  00000-0  00000-0 0  9995
2 38107   0.0185  42.4745 0003247  72.7649 311.5398  1.00270118 33615
YAHSAT 1B               
1 38245U 12016A   21180.25743830  .00000116  00000-0  00000-0 0  9994
2 38245   0.0167  46.8303 0002860  50.4526 320.5417  1.00272114 27403
AEHF-2 (USA 235)        
1 38254U 12019A   21180.19424281 -.00000285  00000-0  00000-0 0  9994
2 38254   2.6472  56.6807 0008598  43.9058 179.1456  1.00265779 32663
JCSAT-13                
1 38331U 12023A   21180.35530689 -.00000366  00000-0  00000+0 0  9992
2 38331   0.0163  54.9275 0002757  62.2474  52.3703  1.00269752 33387
VINASAT-2               
1 38332U 12023B   21179.99801035 -.00000339  00000-0  00000-0 0  9998
2 38332   0.0108 340.6162 0002575 126.4450 301.3583  1.00271810 28466
NIMIQ 6                 
1 38342U 12026A   21180.38418198 -.00000183  00000-0  00000+0 0  9997
2 38342   0.0143 326.7960 0002648 123.0435 235.0205  1.00272909 33419
CHINASAT 2A (ZX 2A)     
1 38352U 12028A   21180.25047124 -.00000302  00000-0  00000-0 0  9997
2 38352   0.0442 121.8698 0002575 313.8752  30.1980  1.00269966 33192
INTELSAT 19 (IS-19)     
1 38356U 12030A   21180.22013552 -.00000066  00000-0  00000-0 0  9996
2 38356   0.0176 340.2475 0003296 125.0632  57.4476  1.00271875 32251
ECHOSTAR 17             
1 38551U 12035A   21180.37538022 -.00000085  00000-0  00000+0 0  9998
2 38551   0.0017  12.3718 0002014  87.8640 205.4521  1.00271283 32934
METEOSAT-10 (MSG-3)     
1 38552U 12035B   21180.18890852  .00000050  00000-0  00000-0 0  9992
2 38552   1.2101  12.1852 0001609 101.2425 241.4651  1.00265443 32665
SES-5                   
1 38652U 12036A   21180.19660938  .00000024  00000-0  00000+0 0  9995
2 38652   0.0469 299.0774 0002097 154.8758 259.2848  1.00270825 32883
TIANLIAN 1-03           
1 38730U 12040A   21180.19691021  .00000115  00000-0  00000-0 0  9996
2 38730   1.1376  96.2190 0005781 331.8014 300.7495  1.00268971 32792
INTELSAT 20 (IS-20)     
1 38740U 12043A   21179.88382575 -.00000035  00000-0  00000-0 0  9997
2 38740   0.0061  53.2209 0001186 150.5867 100.0547  1.00271750 32555
HYLAS 2                 
1 38741U 12043B   21180.19318309  .00000144  00000-0  00000-0 0  9998
2 38741   0.0130 310.0433 0001961 150.4278 277.5972  1.00273266 32570
INTELSAT 21 (IS-21)     
1 38749U 12045A   21180.21645751 -.00000294  00000-0  00000-0 0  9992
2 38749   0.0182  36.5356 0002459  70.7130 190.1749  1.00272265 32348
ASTRA 2F                
1 38778U 12051A   21180.19265969  .00000140  00000-0  00000-0 0  9996
2 38778   0.0694 233.0742 0002086 292.9470 208.9937  1.00272973 22928
GSAT-10                 
1 38779U 12051B   21180.13177593 -.00000175  00000-0  00000-0 0  9995
2 38779   0.0930 103.7654 0001960  13.6073 290.5057  1.00271324 31923
INTELSAT 23 (IS-23)     
1 38867U 12057A   21180.39177150 -.00000294  00000-0  00000+0 0  9997
2 38867   0.0136  69.7341 0002057  23.7113 272.2626  1.00273314 31928
BEIDOU 16               
1 38953U 12059A   21180.08313156 -.00000186  00000-0  00000-0 0  9990
2 38953   1.9962  84.6961 0006827 299.9236   6.7210  1.00271934 31854
LUCH 5B                 
1 38977U 12061A   21179.93591159 -.00000147  00000-0  00000-0 0  9999
2 38977   6.5368  65.1524 0004814  32.7505 139.9422  1.00271118 31988
YAMAL 300K              
1 38978U 12061B   21180.24718387  .00000061  00000-0  00000-0 0  9994
2 38978   0.0168  14.8383 0000854 234.0169 300.5909  1.00272204 31458
STAR ONE C3             
1 38991U 12062A   21180.38740971 -.00000258  00000-0  00000+0 0  9997
2 38991   0.0214  75.7878 0002469  15.3739 250.9482  1.00267901 31662
EUTELSAT 21B            
1 38992U 12062B   21180.27410699  .00000121  00000-0  00000+0 0  9995
2 38992   0.0661 354.5044 0002842 108.4200 294.9348  1.00276072 31684
ECHOSTAR 16             
1 39008U 16039B   21180.03122057 -.00000292  00000-0  00000-0 0  9995
2 39008   0.0009 296.7096 0001888 168.2842 122.0497  1.00271090 31432
CHINASAT 12 (ZX 12)     
1 39017U 12067A   21180.18660263 -.00000216  00000-0  00000-0 0  9990
2 39017   0.0181  34.5397 0003031  63.5779 334.0398  1.00268635 31316
EUTELSAT 70B            
1 39020U 12069A   21180.24493913 -.00000053  00000-0  00000-0 0  9998
2 39020   0.0539  13.3854 0003639 134.9364 287.8576  1.00271622 31321
YAMAL 402               
1 39022U 12070A   21180.19780660  .00000076  00000-0  00000-0 0  9998
2 39022   0.0187  89.9081 0002978  12.4661 301.2099  1.00271912 31196
SKYNET 5D               
1 39034U 12075A   21180.25743830  .00000089  00000-0  00000-0 0  9995
2 39034   0.0674  12.9313 0003921  94.6635 315.3957  1.00274257 30986
MEXSAT 3                
1 39035U 12075B   21180.17063080 -.00000035  00000-0  00000-0 0  9991
2 39035   0.0193  73.2204 0001768  23.8096 127.0432  1.00271944 30991
TDRS 11                 
1 39070U 13004A   21180.42593819  .00000073  00000-0  00000+0 0  9999
2 39070   3.3158 337.7361 0005722  71.0928 208.0324  1.00278548 30797
AMAZONAS 3              
1 39078U 13006A   21179.52890447 -.00000293  00000-0  00000-0 0  9991
2 39078   0.0447 191.2640 0002759 298.7806 276.1827  1.00270098 26705
AZERSPACE 1             
1 39079U 13006B   21180.19623634  .00000123  00000-0  00000-0 0  9990
2 39079   0.0245 297.3790 0001420 173.6647 283.0700  1.00273301 30616
